start=new Date('2023-02-13T00:00:00.000Z').valueOf();
sats=[{"PERIAPSIS":"546.213","MEAN_MOTION":"15.06407616","EPHEMERIS_TYPE":"0","ARG_OF_PERICENTER":"68.1551","CLASSIFICATION_TYPE":"U","INCLINATION":"53.0513","GP_ID":"225268443","TIME_SYSTEM":"UTC","EPOCH":"2023-02-12T19:15:40.378752","MEAN_MOTION_DDOT":"0.0000000000000","TLE_LINE1":"1 47722U 21017A   23043.80255068  .00004110  00000-0  29462-3 0  9991","REF_FRAME":"TEME","DECAY_DATE":null,"OBJECT_TYPE":"PAYLOAD","LAUNCH_DATE":"2021-03-04","CENTER_NAME":"EARTH","MEAN_MOTION_DOT":"0.00004110","NORAD_CAT_ID":"47722","ELEMENT_SET_NO":"999","PERIOD":"95.592","REV_AT_EPOCH":"10836","BSTAR":"0.00029462000000","OBJECT_ID":"2021-017A","RCS_SIZE":"LARGE","MEAN_ANOMALY":"291.9588","SITE":"AFETR","MEAN_ELEMENT_THEORY":"SGP4","ECCENTRICITY":"0.00014110","RA_OF_ASC_NODE":"188.7187","SEMIMAJOR_AXIS":"6925.325","OBJECT_NAME":"STARLINK-2068","COUNTRY_CODE":"US","FILE":"3787797","TLE_LINE2":"2 47722  53.0513 188.7187 0001411  68.1551 291.9588 15.06407616108360","APOAPSIS":"548.167"},{"MEAN_ANOMALY":"283.6174","SITE":"AFETR","MEAN_ELEMENT_THEORY":"SGP4","OBJECT_ID":"2021-017B","RCS_SIZE":"LARGE","SEMIMAJOR_AXIS":"6925.282","FILE":"3787798","COUNTRY_CODE":"US","OBJECT_NAME":"STARLINK-2107","APOAPSIS":"547.757","TLE_LINE2":"2 47723  53.0502 124.0391 0000882  76.4914 283.6174 15.06421863109253","ECCENTRICITY":"0.00008820","RA_OF_ASC_NODE":"124.0391","EPOCH":"2023-02-12T16:15:49.453344","MEAN_MOTION_DDOT":"0.0000000000000","TLE_LINE1":"1 47723U 21017B   23043.67765571  .00011070  00000-0  76042-3 0  9991","MEAN_MOTION":"15.06421863","PERIAPSIS":"546.536","CLASSIFICATION_TYPE":"U","EPHEMERIS_TYPE":"0","ARG_OF_PERICENTER":"76.4914","INCLINATION":"53.0502","GP_ID":"225268452","TIME_SYSTEM":"UTC","ELEMENT_SET_NO":"999","PERIOD":"95.591","BSTAR":"0.00076042000000","REV_AT_EPOCH":"10925","OBJECT_TYPE":"PAYLOAD","DECAY_DATE":null,"REF_FRAME":"TEME","LAUNCH_DATE":"2021-03-04","CENTER_NAME":"EARTH","MEAN_MOTION_DOT":"0.00011070","NORAD_CAT_ID":"47723"},{"OBJECT_ID":"2021-017C","RCS_SIZE":"LARGE","SITE":"AFETR","MEAN_ANOMALY":"298.5972","MEAN_ELEMENT_THEORY":"SGP4","RA_OF_ASC_NODE":"122.9815","ECCENTRICITY":"0.00017500","SEMIMAJOR_AXIS":"6925.352","TLE_LINE2":"2 47724  53.0551 122.9815 0001750  61.5194 298.5972 15.06398805109289","APOAPSIS":"548.429","OBJECT_NAME":"STARLINK-2116","COUNTRY_CODE":"US","FILE":"3788084","EPHEMERIS_TYPE":"0","ARG_OF_PERICENTER":"61.5194","CLASSIFICATION_TYPE":"U","PERIAPSIS":"546.005","MEAN_MOTION":"15.06398805","TIME_SYSTEM":"UTC","GP_ID":"225274819","INCLINATION":"53.0551","MEAN_MOTION_DDOT":"0.0000000000000","EPOCH":"2023-02-12T21:55:31.976256","TLE_LINE1":"1 47724U 21017C   23043.91356454 -.00001515  00000-0 -82815-4 0  9996","DECAY_DATE":null,"REF_FRAME":"TEME","OBJECT_TYPE":"PAYLOAD","MEAN_MOTION_DOT":"-0.00001515","NORAD_CAT_ID":"47724","LAUNCH_DATE":"2021-03-04","CENTER_NAME":"EARTH","ELEMENT_SET_NO":"999","REV_AT_EPOCH":"10928","BSTAR":"-0.00008281500000","PERIOD":"95.592"},{"PERIAPSIS":"546.235","MEAN_MOTION":"15.06401739","EPHEMERIS_TYPE":"0","ARG_OF_PERICENTER":"81.4824","CLASSIFICATION_TYPE":"U","INCLINATION":"53.0519","GP_ID":"225234081","TIME_SYSTEM":"UTC","EPOCH":"2023-02-12T13:11:23.362944","MEAN_MOTION_DDOT":"0.0000000000000","TLE_LINE1":"1 47725U 21017D   23043.54957596 -.00001517  00000-0 -82982-4 0  9997","DECAY_DATE":null,"REF_FRAME":"TEME","OBJECT_TYPE":"PAYLOAD","LAUNCH_DATE":"2021-03-04","CENTER_NAME":"EARTH","NORAD_CAT_ID":"47725","MEAN_MOTION_DOT":"-0.00001517","ELEMENT_SET_NO":"999","PERIOD":"95.592","REV_AT_EPOCH":"10888","BSTAR":"-0.00008298200000","OBJECT_ID":"2021-017D","RCS_SIZE":"LARGE","SITE":"AFETR","MEAN_ANOMALY":"278.6324","MEAN_ELEMENT_THEORY":"SGP4","ECCENTRICITY":"0.00014050","RA_OF_ASC_NODE":"194.6138","SEMIMAJOR_AXIS":"6925.343","COUNTRY_CODE":"US","OBJECT_NAME":"STARLINK-2125","FILE":"3787692","TLE_LINE2":"2 47725  53.0519 194.6138 0001405  81.4824 278.6324 15.06401739108882","APOAPSIS":"548.181"},{"SEMIMAJOR_AXIS":"6925.300","COUNTRY_CODE":"US","OBJECT_NAME":"STARLINK-2126","FILE":"3788077","TLE_LINE2":"2 47726  53.0509 193.1940 0001179  73.9851 286.1268 15.06415860108309","APOAPSIS":"547.981","ECCENTRICITY":"0.00011790","RA_OF_ASC_NODE":"193.1940","SITE":"AFETR","MEAN_ANOMALY":"286.1268","MEAN_ELEMENT_THEORY":"SGP4","OBJECT_ID":"2021-017E","RCS_SIZE":"MEDIUM","ELEMENT_SET_NO":"999","PERIOD":"95.591","REV_AT_EPOCH":"10830","BSTAR":"0.00120490000000","REF_FRAME":"TEME","DECAY_DATE":null,"OBJECT_TYPE":"PAYLOAD","LAUNCH_DATE":"2021-03-04","CENTER_NAME":"EARTH","NORAD_CAT_ID":"47726","MEAN_MOTION_DOT":"0.00017719","EPOCH":"2023-02-12T20:47:51.120960","MEAN_MOTION_DDOT":"0.0000000000000","TLE_LINE1":"1 47726U 21017E   23043.86656390  .00017719  00000-0  12049-2 0  9995","PERIAPSIS":"546.348","MEAN_MOTION":"15.06415860","EPHEMERIS_TYPE":"0","ARG_OF_PERICENTER":"73.9851","CLASSIFICATION_TYPE":"U","INCLINATION":"53.0509","GP_ID":"225274243","TIME_SYSTEM":"UTC"},{"TLE_LINE1":"1 47727U 21017F   23043.48596732  .00002377  00000-0  17838-3 0  9993","EPOCH":"2023-02-12T11:39:47.576448","MEAN_MOTION_DDOT":"0.0000000000000","INCLINATION":"53.0533","TIME_SYSTEM":"UTC","GP_ID":"225234579","PERIAPSIS":"546.129","MEAN_MOTION":"15.06401911","EPHEMERIS_TYPE":"0","ARG_OF_PERICENTER":"64.7561","CLASSIFICATION_TYPE":"U","PERIOD":"95.592","REV_AT_EPOCH":"11002","BSTAR":"0.00017838000000","ELEMENT_SET_NO":"999","CENTER_NAME":"EARTH","LAUNCH_DATE":"2021-03-04","NORAD_CAT_ID":"47727","MEAN_MOTION_DOT":"0.00002377","REF_FRAME":"TEME","DECAY_DATE":null,"OBJECT_TYPE":"PAYLOAD","MEAN_ELEMENT_THEORY":"SGP4","SITE":"AFETR","MEAN_ANOMALY":"295.3590","RCS_SIZE":"LARGE","OBJECT_ID":"2021-017F","OBJECT_NAME":"STARLINK-2129","COUNTRY_CODE":"US","FILE":"3787692","TLE_LINE2":"2 47727  53.0533 114.9056 0001558  64.7561 295.3590 15.06401911110027","APOAPSIS":"548.287","SEMIMAJOR_AXIS":"6925.343","ECCENTRICITY":"0.00015580","RA_OF_ASC_NODE":"114.9056"},{"OBJECT_TYPE":"PAYLOAD","DECAY_DATE":null,"REF_FRAME":"TEME","NORAD_CAT_ID":"47728","MEAN_MOTION_DOT":"0.00032514","CENTER_NAME":"EARTH","LAUNCH_DATE":"2021-03-04","ELEMENT_SET_NO":"999","BSTAR":"0.00219040000000","REV_AT_EPOCH":"10829","PERIOD":"95.591","CLASSIFICATION_TYPE":"U","EPHEMERIS_TYPE":"0","ARG_OF_PERICENTER":"86.8205","MEAN_MOTION":"15.06421223","PERIAPSIS":"546.530","GP_ID":"225268873","TIME_SYSTEM":"UTC","INCLINATION":"53.0534","MEAN_MOTION_DDOT":"0.0000000000000","EPOCH":"2023-02-12T18:35:09.585600","TLE_LINE1":"1 47728U 21017G   23043.77441650  .00032514  00000-0  21904-2 0  9998","RA_OF_ASC_NODE":"193.6002","ECCENTRICITY":"0.00008930","SEMIMAJOR_AXIS":"6925.284","APOAPSIS":"547.767","TLE_LINE2":"2 47728  53.0534 193.6002 0000893  86.8205 273.2886 15.06421223108292","FILE":"3787802","COUNTRY_CODE":"US","OBJECT_NAME":"STARLINK-2131","OBJECT_ID":"2021-017G","RCS_SIZE":"LARGE","MEAN_ANOMALY":"273.2886","SITE":"AFETR","MEAN_ELEMENT_THEORY":"SGP4"},{"MEAN_ELEMENT_THEORY":"SGP4","MEAN_ANOMALY":"274.3052","SITE":"AFETR","RCS_SIZE":"LARGE","OBJECT_ID":"2021-017H","APOAPSIS":"548.741","TLE_LINE2":"2 47729  53.0509 139.8726 0002305  85.8200 274.3052 15.06422590109032","FILE":"3787545","OBJECT_NAME":"STARLINK-2132","COUNTRY_CODE":"US","SEMIMAJOR_AXIS":"6925.279","RA_OF_ASC_NODE":"139.8726","ECCENTRICITY":"0.00023050","TLE_LINE1":"1 47729U 21017H   23043.53808519  .00035887  00000-0  24144-2 0  9999","MEAN_MOTION_DDOT":"0.0000000000000","EPOCH":"2023-02-12T12:54:50.560416","TIME_SYSTEM":"UTC","GP_ID":"225209139","INCLINATION":"53.0509","CLASSIFICATION_TYPE":"U","EPHEMERIS_TYPE":"0","ARG_OF_PERICENTER":"85.8200","MEAN_MOTION":"15.06422590","PERIAPSIS":"545.548","BSTAR":"0.00241440000000","REV_AT_EPOCH":"10903","PERIOD":"95.591","ELEMENT_SET_NO":"999","MEAN_MOTION_DOT":"0.00035887","NORAD_CAT_ID":"47729","LAUNCH_DATE":"2021-03-04","CENTER_NAME":"EARTH","OBJECT_TYPE":"PAYLOAD","REF_FRAME":"TEME","DECAY_DATE":null},{"INCLINATION":"53.0529","GP_ID":"225233830","TIME_SYSTEM":"UTC","MEAN_MOTION":"15.06398367","PERIAPSIS":"546.138","CLASSIFICATION_TYPE":"U","ARG_OF_PERICENTER":"78.8910","EPHEMERIS_TYPE":"0","TLE_LINE1":"1 47730U 21017J   23043.46526409  .00015171  00000-0  10352-2 0  9998","EPOCH":"2023-02-12T11:09:58.817376","MEAN_MOTION_DDOT":"0.0000000000000","LAUNCH_DATE":"2021-03-04","CENTER_NAME":"EARTH","NORAD_CAT_ID":"47730","MEAN_MOTION_DOT":"0.00015171","OBJECT_TYPE":"PAYLOAD","REF_FRAME":"TEME","DECAY_DATE":null,"PERIOD":"95.592","BSTAR":"0.00103520000000","REV_AT_EPOCH":"10866","ELEMENT_SET_NO":"999","RCS_SIZE":"LARGE","OBJECT_ID":"2021-017J","MEAN_ELEMENT_THEORY":"SGP4","MEAN_ANOMALY":"281.2254","SITE":"AFETR","ECCENTRICITY":"0.00015610","RA_OF_ASC_NODE":"209.9990","FILE":"3787692","OBJECT_NAME":"STARLINK-2140","COUNTRY_CODE":"US","APOAPSIS":"548.300","TLE_LINE2":"2 47730  53.0529 209.9990 0001561  78.8910 281.2254 15.06398367108664","SEMIMAJOR_AXIS":"6925.354"},{"ECCENTRICITY":"0.00012530","RA_OF_ASC_NODE":"204.6681","SEMIMAJOR_AXIS":"6925.387","FILE":"3787692","OBJECT_NAME":"STARLINK-2141","COUNTRY_CODE":"US","APOAPSIS":"548.120","TLE_LINE2":"2 47731  53.0521 204.6681 0001253  87.0390 273.0742 15.06387419108755","OBJECT_ID":"2021-017K","RCS_SIZE":"LARGE","MEAN_ANOMALY":"273.0742","SITE":"AFETR","MEAN_ELEMENT_THEORY":"SGP4","OBJECT_TYPE":"PAYLOAD","DECAY_DATE":null,"REF_FRAME":"TEME","CENTER_NAME":"EARTH","LAUNCH_DATE":"2021-03-04","MEAN_MOTION_DOT":"-0.00001112","NORAD_CAT_ID":"47731","ELEMENT_SET_NO":"999","PERIOD":"95.593","BSTAR":"-0.00005576700000","REV_AT_EPOCH":"10875","MEAN_MOTION":"15.06387419","PERIAPSIS":"546.384","CLASSIFICATION_TYPE":"U","EPHEMERIS_TYPE":"0","ARG_OF_PERICENTER":"87.0390","INCLINATION":"53.0521","TIME_SYSTEM":"UTC","GP_ID":"225235079","EPOCH":"2023-02-12T12:54:08.385984","MEAN_MOTION_DDOT":"0.0000000000000","TLE_LINE1":"1 47731U 21017K   23043.53759706 -.00001112  00000-0 -55767-4 0  9998"}];
